[{"OBJECT_NAME":"TIANHUI 2-02B","OBJECT_ID":"2021-074B","EPOCH":"2026-03-09T12:16:24.599712","MEAN_MOTION":15.16781044,"ECCENTRICITY":0.0002039,"INCLINATION":97.4828,"RA_OF_ASC_NODE":73.0429,"ARG_OF_PERICENTER":85.7356,"MEAN_ANOMALY":274.411,"EPHEMERIS_TYPE":0,"CLASSIFICATION_TYPE":"U","NORAD_CAT_ID":49072,"ELEMENT_SET_NO":999,"REV_AT_EPOCH":25216,"BSTAR":0.0001397,"MEAN_MOTION_DOT":2.676e-5,"MEAN_MOTION_DDOT":0},{"OBJECT_NAME":"LEMUR-2-TILLINFINITY","OBJECT_ID":"2025-061F","EPOCH":"2026-03-09T21:40:30.357696","MEAN_MOTION":15.139452,"ECCENTRICITY":0.00168906,"INCLINATION":97.5532,"RA_OF_ASC_NODE":45.5587,"ARG_OF_PERICENTER":226.702,"MEAN_ANOMALY":133.2804,"EPHEMERIS_TYPE":0,"CLASSIFICATION_TYPE":"U","NORAD_CAT_ID":63356,"ELEMENT_SET_NO":999,"REV_AT_EPOCH":5261,"BSTAR":0.00030453504,"MEAN_MOTION_DOT":5.472e-5,"MEAN_MOTION_DDOT":0}]
