TIANHUI 2-02B           
1 49072U 21074B   26068.51139583  .00002676  00000+0  13970-3 0  9996
2 49072  97.4828  73.0429 0002039  85.7356 274.4110 15.16781044252167
LEMUR-2-TILLINFINITY    
1 63356U 25061F   26068.90312914  .00005472  00000+0  30454-3 0  9994
2 63356  97.5532  45.5587 0016891 226.7020 133.2804 15.13945199 52616
